{
  "norad_id": 46454,
  "name": "JILIN-1 GAOFEN 3B",
  "history": [
    {
      "epoch": "2026-03-28T20:29:13.529184Z",
      "apogee_km": 308.6008053534051,
      "perigee_km": 305.59499003870314,
      "latitude_deg": -2.140158263848443e-05,
      "longitude_deg": 12.88192024330533,
      "height_km": 311.7835405516467,
      "semi_major_axis_km": 6685.234897696054,
      "eccentricity": 0.00022481,
      "inclination_deg": 97.2306,
      "raan_deg": 146.4564,
      "arg_perigee_deg": 175.4362,
      "mean_anomaly_deg": 184.6931,
      "mean_motion_rev_day": 15.88282514
    },
    {
      "epoch": "2026-03-29T02:32:06.514944Z",
      "apogee_km": 308.1271920918616,
      "perigee_km": 305.14177314772223,
      "latitude_deg": -3.685858065889252e-05,
      "longitude_deg": -77.81963646353377,
      "height_km": 311.3095968276854,
      "semi_major_axis_km": 6684.771482619792,
      "eccentricity": 0.0002233,
      "inclination_deg": 97.2303,
      "raan_deg": 146.724,
      "arg_perigee_deg": 175.1653,
      "mean_anomaly_deg": 184.9641,
      "mean_motion_rev_day": 15.88447676
    },
    {
      "epoch": "2026-03-30T02:43:15.264768Z",
      "apogee_km": 306.21518743145316,
      "perigee_km": 303.2119143938726,
      "latitude_deg": -1.3093160970569913e-06,
      "longitude_deg": -80.52907198909006,
      "height_km": 309.40178473034985,
      "semi_major_axis_km": 6682.850550912663,
      "eccentricity": 0.0002247,
      "inclination_deg": 97.2291,
      "raan_deg": 147.7943,
      "arg_perigee_deg": 176.9192,
      "mean_anomaly_deg": 183.2095,
      "mean_motion_rev_day": 15.89132605
    },
    {
      "epoch": "2026-03-30T05:44:36.237984Z",
      "apogee_km": 305.9942984625404,
      "perigee_km": 302.98056849552904,
      "latitude_deg": 2.8917683025203058e-05,
      "longitude_deg": -125.85669341463465,
      "height_km": 309.1811266080517,
      "semi_major_axis_km": 6682.624433479034,
      "eccentricity": 0.00022549,
      "inclination_deg": 97.2289,
      "raan_deg": 147.9282,
      "arg_perigee_deg": 177.0073,
      "mean_anomaly_deg": 183.1214,
      "mean_motion_rev_day": 15.89213262
    },
    {
      "epoch": "2026-03-30T14:48:35.896032Z",
      "apogee_km": 305.2686013676448,
      "perigee_km": 302.3069050400336,
      "latitude_deg": 4.091664932491781e-05,
      "longitude_deg": 98.17387944098019,
      "height_km": 308.4571142104993,
      "semi_major_axis_km": 6681.924753203839,
      "eccentricity": 0.00022162,
      "inclination_deg": 97.2284,
      "raan_deg": 148.3297,
      "arg_perigee_deg": 178.1399,
      "mean_anomaly_deg": 181.9883,
      "mean_motion_rev_day": 15.89462884
    }
  ]
}